$$SOE
2460154.500000000, A.D. 2023-Jul-29 00:00:00.0000, -6.220772139831638E+07, 5.531692669053099E+08, -3.212403975405496E+07,
2460161.500000000, A.D. 2023-Aug-05 00:00:00.0000, -7.153037974964517E+07, 5.509975965593724E+08, -3.192494421821892E+07,
2460168.500000000, A.D. 2023-Aug-12 00:00:00.0000, -8.083288784253211E+07, 5.486707122583845E+08, -3.171685399564260E+07,
2460175.500000000, A.D. 2023-Aug-19 00:00:00.0000, -9.011250054199046E+07, 5.461884002641759E+08, -3.149977743406639E+07,
2460182.500000000, A.D. 2023-Aug-26 00:00:00.0000, -9.936644936221847E+07, 5.435504971222301E+08, -3.127372606954190E+07,
2460189.500000000, A.D. 2023-Sep-02 00:00:00.0000, -1.085919434052673E+08, 5.407568908196818E+08, -3.103871468510967E+07,
2460196.500000000, A.D. 2023-Sep-09 00:00:00.0000, -1.177861703355979E+08, 5.378075218213488E+08, -3.079476137986866E+07,
2460203.500000000, A.D. 2023-Sep-16 00:00:00.0000, -1.269462972227743E+08, 5.347023839237080E+08, -3.054188766843501E+07,
2460210.500000000, A.D. 2023-Sep-23 00:00:00.0000, -1.360694708366192E+08, 5.314415252115380E+08, -3.028011862534833E+07,
2460217.500000000, A.D. 2023-Sep-30 00:00:00.0000, -1.451528177351528E+08, 5.280250503062749E+08, -3.000948294582358E+07,
2460224.500000000, A.D. 2023-Oct-07 00:00:00.0000, -1.541934464991038E+08, 5.244531233617018E+08, -2.973001275119445E+07,
2460231.500000000, A.D. 2023-Oct-14 00:00:00.0000, -1.631884510726801E+08, 5.207259684906563E+08, -2.944174350474969E+07,
2460238.500000000, A.D. 2023-Oct-21 00:00:00.0000, -1.721349119829231E+08, 5.168438692224519E+08, -2.914471420264137E+07,
2460245.500000000, A.D. 2023-Oct-28 00:00:00.0000, -1.810298968626533E+08, 5.128071692500011E+08, -2.883896752436504E+07,
2460252.500000000, A.D. 2023-Nov-04 00:00:00.0000, -1.898704615263617E+08, 5.086162736944511E+08, -2.852454989085150E+07,
2460259.500000000, A.D. 2023-Nov-11 00:00:00.0000, -1.986536514206214E+08, 5.042716502846268E+08, -2.820151149502504E+07,
2460266.500000000, A.D. 2023-Nov-18 00:00:00.0000, -2.073765032287291E+08, 4.997738303837931E+08, -2.786990632971787E+07,
2460273.500000000, A.D. 2023-Nov-25 00:00:00.0000, -2.160360465560400E+08, 4.951234098828802E+08, -2.752979221727169E+07,
2460280.500000000, A.D. 2023-Dec-02 00:00:00.0000, -2.246293056673794E+08, 4.903210499455148E+08, -2.718123084386578E+07,
2460287.500000000, A.D. 2023-Dec-09 00:00:00.0000, -2.331533011985751E+08, 4.853674775428066E+08, -2.682428781018287E+07,
2460294.500000000, A.D. 2023-Dec-16 00:00:00.0000, -2.416050515545047E+08, 4.802634857878981E+08, -2.645903272358531E+07,
2460301.500000000, A.D. 2023-Dec-23 00:00:00.0000, -2.499815736449762E+08, 4.750099347557366E+08, -2.608553930758384E+07,
2460308.500000000, A.D. 2023-Dec-30 00:00:00.0000, -2.582798842980477E+08, 4.696077538360263E+08, -2.570388532011592E+07,
2460315.500000000, A.D. 2024-Jan-06 00:00:00.0000, -2.664970041212178E+08, 4.640579432572629E+08, -2.531415231119511E+07,
2460322.500000000, A.D. 2024-Jan-13 00:00:00.0000, -2.746299606347907E+08, 4.583615729713663E+08, -2.491642565847093E+07,
2460329.500000000, A.D. 2024-Jan-20 00:00:00.0000, -2.826757894524359E+08, 4.525197819797900E+08, -2.451079474079055E+07,
2460336.500000000, A.D. 2024-Jan-27 00:00:00.0000, -2.906315355362941E+08, 4.465337787511607E+08, -2.409735301061729E+07,
2460343.500000000, A.D. 2024-Feb-03 00:00:00.0000, -2.984942549526063E+08, 4.404048417792308E+08, -2.367619800364709E+07,
2460350.500000000, A.D. 2024-Feb-10 00:00:00.0000, -3.062610168481517E+08, 4.341343199868499E+08, -2.324743133484769E+07,
2460357.500000000, A.D. 2024-Feb-17 00:00:00.0000, -3.139289055066957E+08, 4.277236329809186E+08, -2.281115869299304E+07,
2460364.500000000, A.D. 2024-Feb-24 00:00:00.0000, -3.214950224474158E+08, 4.211742711705551E+08, -2.236748983580294E+07,
2460371.500000000, A.D. 2024-Mar-02 00:00:00.0000, -3.289564885336763E+08, 4.144877957137229E+08, -2.191653859105021E+07,
2460378.500000000, A.D. 2024-Mar-09 00:00:00.0000, -3.363104459507843E+08, 4.076658382274262E+08, -2.145842288149576E+07,
2460385.500000000, A.D. 2024-Mar-16 00:00:00.0000, -3.435540596546010E+08, 4.007101004567387E+08, -2.099326479374169E+07,
2460392.500000000, A.D. 2024-Mar-23 00:00:00.0000, -3.506845183918101E+08, 3.936223550098400E+08, -2.052119059083627E+07,
2460399.500000000, A.D. 2024-Mar-30 00:00:00.0000, -3.576990375303450E+08, 3.864044471311267E+08, -2.004233046532470E+07,
2460406.500000000, A.D. 2024-Apr-06 00:00:00.0000, -3.645948634400598E+08, 3.790582941438996E+08, -1.955681833142908E+07,
2460413.500000000, A.D. 2024-Apr-13 00:00:00.0000, -3.713692758677156E+08, 3.715858833964377E+08, -1.906479191339129E+07,
2460420.500000000, A.D. 2024-Apr-20 00:00:00.0000, -3.780195892553777E+08, 3.639892713857777E+08, -1.856639282376230E+07,
2460427.500000000, A.D. 2024-Apr-27 00:00:00.0000, -3.845431545163569E+08, 3.562705834972384E+08, -1.806176653846228E+07,
2460434.500000000, A.D. 2024-May-04 00:00:00.0000, -3.909373611768202E+08, 3.484320136557790E+08, -1.755106233410406E+07,
2460441.500000000, A.D. 2024-May-11 00:00:00.0000, -3.971996396405262E+08, 3.404758237866033E+08, -1.703443321759871E+07,
2460448.500000000, A.D. 2024-May-18 00:00:00.0000, -4.033274634906156E+08, 3.324043431060443E+08, -1.651203585361607E+07,
2460455.500000000, A.D. 2024-May-25 00:00:00.0000, -4.093183517996865E+08, 3.242199672353516E+08, -1.598403049256533E+07,
2460462.500000000, A.D. 2024-Jun-01 00:00:00.0000, -4.151698713842157E+08, 3.159251570799789E+08, -1.545058090907559E+07,
2460469.500000000, A.D. 2024-Jun-08 00:00:00.0000, -4.208796387528112E+08, 3.075224374516314E+08, -1.491185437523077E+07,
2460476.500000000, A.D. 2024-Jun-15 00:00:00.0000, -4.264453213446196E+08, 2.990143959784859E+08, -1.436802166043335E+07,
2460483.500000000, A.D. 2024-Jun-22 00:00:00.0000, -4.318646390593747E+08, 2.904036834793194E+08, -1.381925686950186E+07,
2460490.500000000, A.D. 2024-Jun-29 00:00:00.0000, -4.371353681974661E+08, 2.816930139823914E+08, -1.326573707319251E+07,
2460497.500000000, A.D. 2024-Jul-06 00:00:00.0000, -4.422553451603170E+08, 2.728851619201800E+08, -1.270764217558651E+07,
2460504.500000000, A.D. 2024-Jul-13 00:00:00.0000, -4.472224679558758E+08, 2.639829593248037E+08, -1.214515496605103E+07,
2460511.500000000, A.D. 2024-Jul-20 00:00:00.0000, -4.520346974904237E+08, 2.549892941735385E+08, -1.157846107974084E+07,
2460518.500000000, A.D. 2024-Jul-27 00:00:00.0000, -4.566900592984763E+08, 2.459071089268435E+08, -1.100774888504772E+07,
2460525.500000000, A.D. 2024-Aug-03 00:00:00.0000, -4.611866454329449E+08, 2.367393988856778E+08, -1.043320935379829E+07,
2460532.500000000, A.D. 2024-Aug-10 00:00:00.0000, -4.655226163452731E+08, 2.274892103650684E+08, -9.855035929963812E+06,
2460539.500000000, A.D. 2024-Aug-17 00:00:00.0000, -4.696962027046788E+08, 2.181596387075270E+08, -9.273424399806187E+06,
2460546.500000000, A.D. 2024-Aug-24 00:00:00.0000, -4.737057071257874E+08, 2.087538261168686E+08, -8.688572768337503E+06,
2460553.500000000, A.D. 2024-Aug-31 00:00:00.0000, -4.775495056861888E+08, 1.992749592545939E+08, -8.100681158281699E+06,
2460560.500000000, A.D. 2024-Sep-07 00:00:00.0000, -4.812260488651876E+08, 1.897262667292193E+08, -7.509951755265467E+06,
2460567.500000000, A.D. 2024-Sep-14 00:00:00.0000, -4.847338618149226E+08, 1.801110174783002E+08, -6.916588726142846E+06,
2460574.500000000, A.D. 2024-Sep-21 00:00:00.0000, -4.880715459895751E+08, 1.704325204593940E+08, -6.320797891128927E+06,
2460581.500000000, A.D. 2024-Sep-28 00:00:00.0000, -4.912377826178082E+08, 1.606941224266428E+08, -5.722786369305864E+06,
2460588.500000000, A.D. 2024-Oct-05 00:00:00.0000, -4.942313343451244E+08, 1.508992037993944E+08, -5.122762534249626E+06,
2460595.500000000, A.D. 2024-Oct-12 00:00:00.0000, -4.970510454024266E+08, 1.410511756064005E+08, -4.520936003315270E+06,
2460602.500000000, A.D. 2024-Oct-19 00:00:00.0000, -4.996958420493249E+08, 1.311534772380712E+08, -3.917517522449747E+06,
2460609.500000000, A.D. 2024-Oct-26 00:00:00.0000, -5.021647333230844E+08, 1.212095742098837E+08, -3.312718809442282E+06,
2460616.500000000, A.D. 2024-Nov-02 00:00:00.0000, -5.044568118339658E+08, 1.112229557935217E+08, -2.706752391622767E+06,
2460623.500000000, A.D. 2024-Nov-09 00:00:00.0000, -5.065712545083040E+08, 1.011971325413384E+08, -2.099831445400991E+06,
2460630.500000000, A.D. 2024-Nov-16 00:00:00.0000, -5.085073232516100E+08, 9.113563370926864E+07, -1.492169640214667E+06,
2460637.500000000, A.D. 2024-Nov-23 00:00:00.0000, -5.102643654833043E+08, 8.104200453320885E+07, -8.839809954796955E+05,
2460644.500000000, A.D. 2024-Nov-30 00:00:00.0000, -5.118418143335714E+08, 7.091980332122104E+07, -2.754797733306661E+05,
2460651.500000000, A.D. 2024-Dec-07 00:00:00.0000, -5.132391880818616E+08, 6.077259878717466E+07, 3.331195885787532E+05,
2460658.500000000, A.D. 2024-Dec-14 00:00:00.0000, -5.144560895248704E+08, 5.060396885454810E+07, 9.416026672380380E+05,
2460665.500000000, A.D. 2024-Dec-21 00:00:00.0000, -5.154922075927575E+08, 4.041749969417290E+07, 1.549755478461130E+06,
2460672.500000000, A.D. 2024-Dec-28 00:00:00.0000, -5.163473192423248E+08, 3.021678203381666E+07, 2.157364711493827E+06,
2460679.500000000, A.D. 2025-Jan-04 00:00:00.0000, -5.170212890298589E+08, 2.000540712149794E+07, 2.764217730033922E+06,
2460686.500000000, A.D. 2025-Jan-11 00:00:00.0000, -5.175140681841244E+08, 9.786964006948953E+06, 3.370102642404482E+06,
2460693.500000000, A.D. 2025-Jan-18 00:00:00.0000, -5.178256940972314E+08, -4.349627736290216E+05, 3.974808449820108E+06,
2460700.500000000, A.D. 2025-Jan-25 00:00:00.0000, -5.179562899917059E+08, -1.065679557962088E+07, 4.578125211555356E+06,
2460707.500000000, A.D. 2025-Feb-01 00:00:00.0000, -5.179060645759998E+08, -2.087496614027875E+07, 5.179844207170414E+06,
2460714.500000000, A.D. 2025-Feb-08 00:00:00.0000, -5.176753116317138E+08, -3.108591809702766E+07, 5.779758092058288E+06,
$$EOE